RS20S (GEOSCAN-EDELVEIS)
1 53385U 22096R   23004.55350786  .00019929  00000-0  70176-3 0  9995
2 53385  97.4272 270.3683 0003183 307.1680 175.2795 15.29341506 22653
